start=new Date('2023-05-23T00:00:00.000Z').valueOf();
sats=[{"REV_AT_EPOCH":"12197","FILE":"3914693","EPOCH":"2023-05-22T10:17:08.829024","TIME_SYSTEM":"UTC","BSTAR":"-0.00024356000000","TLE_LINE2":"2 47887  53.0531 190.7257 0001178 100.2262 259.8859 15.06398005121977","TLE_LINE1":"1 47887U 21021AD  23142.42857441 -.00003907  00000-0 -24356-3 0  9991","NORAD_CAT_ID":"47887","INCLINATION":"53.0531","LAUNCH_DATE":"2021-03-14","ELEMENT_SET_NO":"999","APOAPSIS":"548.035","DECAY_DATE":null,"ARG_OF_PERICENTER":"100.2262","SITE":"AFETR","GP_ID":"232323032","RCS_SIZE":"LARGE","MEAN_ANOMALY":"259.8859","MEAN_MOTION_DDOT":"0.0000000000000","OBJECT_NAME":"STARLINK-2346","ECCENTRICITY":"0.00011780","CENTER_NAME":"EARTH","PERIAPSIS":"546.404","MEAN_MOTION":"15.06398005","PERIOD":"95.592","RA_OF_ASC_NODE":"190.7257","OBJECT_ID":"2021-021AD","EPHEMERIS_TYPE":"0","SEMIMAJOR_AXIS":"6925.355","REF_FRAME":"TEME","MEAN_ELEMENT_THEORY":"SGP4","MEAN_MOTION_DOT":"-0.00003907","COUNTRY_CODE":"US","OBJECT_TYPE":"PAYLOAD","CLASSIFICATION_TYPE":"U"},{"NORAD_CAT_ID":"47888","INCLINATION":"53.0524","TLE_LINE1":"1 47888U 21021AE  23142.51796311 -.00002762  00000-0 -16660-3 0  9997","TLE_LINE2":"2 47888  53.0524 180.3242 0001193  96.5636 263.5489 15.06394194121659","APOAPSIS":"548.058","DECAY_DATE":null,"ELEMENT_SET_NO":"999","LAUNCH_DATE":"2021-03-14","EPOCH":"2023-05-22T12:25:52.012704","FILE":"3914780","REV_AT_EPOCH":"12165","TIME_SYSTEM":"UTC","BSTAR":"-0.00016660000000","SEMIMAJOR_AXIS":"6925.366","EPHEMERIS_TYPE":"0","RA_OF_ASC_NODE":"180.3242","OBJECT_ID":"2021-021AE","PERIOD":"95.593","MEAN_MOTION_DOT":"-0.00002762","COUNTRY_CODE":"US","CLASSIFICATION_TYPE":"U","OBJECT_TYPE":"PAYLOAD","MEAN_ELEMENT_THEORY":"SGP4","REF_FRAME":"TEME","RCS_SIZE":"LARGE","MEAN_ANOMALY":"263.5489","MEAN_MOTION_DDOT":"0.0000000000000","OBJECT_NAME":"STARLINK-2348","GP_ID":"232331796","SITE":"AFETR","ARG_OF_PERICENTER":"96.5636","PERIAPSIS":"546.405","MEAN_MOTION":"15.06394194","CENTER_NAME":"EARTH","ECCENTRICITY":"0.00011930"},{"RA_OF_ASC_NODE":"179.0840","OBJECT_ID":"2021-021AF","PERIOD":"95.592","SEMIMAJOR_AXIS":"6925.360","EPHEMERIS_TYPE":"0","REF_FRAME":"TEME","OBJECT_TYPE":"PAYLOAD","CLASSIFICATION_TYPE":"U","MEAN_MOTION_DOT":"-0.00000329","COUNTRY_CODE":"US","MEAN_ELEMENT_THEORY":"SGP4","SITE":"AFETR","ARG_OF_PERICENTER":"88.9650","OBJECT_NAME":"STARLINK-2349","MEAN_MOTION_DDOT":"0.0000000000000","MEAN_ANOMALY":"271.1477","RCS_SIZE":"LARGE","GP_ID":"232357798","ECCENTRICITY":"0.00012080","MEAN_MOTION":"15.06396134","PERIAPSIS":"546.389","CENTER_NAME":"EARTH","INCLINATION":"53.0543","NORAD_CAT_ID":"47889","TLE_LINE2":"2 47889  53.0543 179.0840 0001208  88.9650 271.1477 15.06396134122220","TLE_LINE1":"1 47889U 21021AF  23142.79442336 -.00000329  00000-0 -32019-5 0  9998","ELEMENT_SET_NO":"999","LAUNCH_DATE":"2021-03-14","DECAY_DATE":null,"APOAPSIS":"548.062","FILE":"3914964","REV_AT_EPOCH":"12222","EPOCH":"2023-05-22T19:03:58.178304","BSTAR":"-0.00000320190000","TIME_SYSTEM":"UTC"},{"INCLINATION":"53.0520","NORAD_CAT_ID":"47891","TLE_LINE2":"2 47891  53.0520 188.7556 0001271  90.1365 269.9770 15.06386661122200","TLE_LINE1":"1 47891U 21021AH  23142.86720991  .00012054  00000-0  82702-3 0  9993","DECAY_DATE":null,"APOAPSIS":"548.135","ELEMENT_SET_NO":"999","LAUNCH_DATE":"2021-03-14","EPOCH":"2023-05-22T20:48:46.936224","FILE":"3914964","REV_AT_EPOCH":"12220","BSTAR":"0.00082702000000","TIME_SYSTEM":"UTC","SEMIMAJOR_AXIS":"6925.389","EPHEMERIS_TYPE":"0","RA_OF_ASC_NODE":"188.7556","OBJECT_ID":"2021-021AH","PERIOD":"95.593","CLASSIFICATION_TYPE":"U","OBJECT_TYPE":"PAYLOAD","COUNTRY_CODE":"US","MEAN_MOTION_DOT":"0.00012054","MEAN_ELEMENT_THEORY":"SGP4","REF_FRAME":"TEME","MEAN_MOTION_DDOT":"0.0000000000000","OBJECT_NAME":"STARLINK-2351","MEAN_ANOMALY":"269.9770","RCS_SIZE":"LARGE","GP_ID":"232357535","SITE":"AFETR","ARG_OF_PERICENTER":"90.1365","MEAN_MOTION":"15.06386661","PERIAPSIS":"546.374","CENTER_NAME":"EARTH","ECCENTRICITY":"0.00012710"},{"PERIAPSIS":"512.664","MEAN_MOTION":"15.17408966","CENTER_NAME":"EARTH","ECCENTRICITY":"0.00014700","RCS_SIZE":"LARGE","MEAN_ANOMALY":"262.5708","MEAN_MOTION_DDOT":"0.0000000000000","OBJECT_NAME":"STARLINK-2352","GP_ID":"232323533","SITE":"AFETR","ARG_OF_PERICENTER":"97.5453","MEAN_MOTION_DOT":"0.00002696","COUNTRY_CODE":"US","OBJECT_TYPE":"PAYLOAD","CLASSIFICATION_TYPE":"U","MEAN_ELEMENT_THEORY":"SGP4","REF_FRAME":"TEME","SEMIMAJOR_AXIS":"6891.812","EPHEMERIS_TYPE":"0","OBJECT_ID":"2021-021AJ","RA_OF_ASC_NODE":"157.3514","PERIOD":"94.899","TIME_SYSTEM":"UTC","BSTAR":"0.00014867000000","EPOCH":"2023-05-22T07:36:18.225504","FILE":"3914693","REV_AT_EPOCH":"12244","APOAPSIS":"514.690","DECAY_DATE":null,"ELEMENT_SET_NO":"999","LAUNCH_DATE":"2021-03-14","NORAD_CAT_ID":"47892","INCLINATION":"53.0525","TLE_LINE2":"2 47892  53.0525 157.3514 0001470  97.5453 262.5708 15.17408966122443","TLE_LINE1":"1 47892U 21021AJ  23142.31687761  .00002696  00000-0  14867-3 0  9999"},{"DECAY_DATE":null,"APOAPSIS":"548.120","ELEMENT_SET_NO":"999","LAUNCH_DATE":"2021-03-14","INCLINATION":"53.0516","NORAD_CAT_ID":"47894","TLE_LINE2":"2 47894  53.0516 178.9490 0001245 103.6309 256.4819 15.06385699122121","TLE_LINE1":"1 47894U 21021AL  23142.82390017  .00008752  00000-0  60591-3 0  9996","BSTAR":"0.00060591000000","TIME_SYSTEM":"UTC","EPOCH":"2023-05-22T19:46:24.974688","FILE":"3914964","REV_AT_EPOCH":"12212","OBJECT_TYPE":"PAYLOAD","CLASSIFICATION_TYPE":"U","MEAN_MOTION_DOT":"0.00008752","COUNTRY_CODE":"US","MEAN_ELEMENT_THEORY":"SGP4","REF_FRAME":"TEME","SEMIMAJOR_AXIS":"6925.392","EPHEMERIS_TYPE":"0","RA_OF_ASC_NODE":"178.9490","OBJECT_ID":"2021-021AL","PERIOD":"95.593","MEAN_MOTION":"15.06385699","PERIAPSIS":"546.395","CENTER_NAME":"EARTH","ECCENTRICITY":"0.00012450","MEAN_MOTION_DDOT":"0.0000000000000","OBJECT_NAME":"STARLINK-2354","MEAN_ANOMALY":"256.4819","RCS_SIZE":"LARGE","GP_ID":"232357048","SITE":"AFETR","ARG_OF_PERICENTER":"103.6309"},{"REF_FRAME":"TEME","MEAN_ELEMENT_THEORY":"SGP4","COUNTRY_CODE":"US","MEAN_MOTION_DOT":"0.00010556","OBJECT_TYPE":"PAYLOAD","CLASSIFICATION_TYPE":"U","PERIOD":"95.593","OBJECT_ID":"2021-021AM","RA_OF_ASC_NODE":"178.9034","EPHEMERIS_TYPE":"0","SEMIMAJOR_AXIS":"6925.386","ECCENTRICITY":"0.00010730","CENTER_NAME":"EARTH","PERIAPSIS":"546.508","MEAN_MOTION":"15.06387653","ARG_OF_PERICENTER":"90.6055","SITE":"AFETR","GP_ID":"232357299","MEAN_ANOMALY":"269.5057","RCS_SIZE":"LARGE","OBJECT_NAME":"STARLINK-2355","MEAN_MOTION_DDOT":"0.0000000000000","LAUNCH_DATE":"2021-03-14","ELEMENT_SET_NO":"999","APOAPSIS":"547.994","DECAY_DATE":null,"TLE_LINE2":"2 47895  53.0510 178.9034 0001073  90.6055 269.5057 15.06387653122156","TLE_LINE1":"1 47895U 21021AM  23142.83495504  .00010556  00000-0  72672-3 0  9993","NORAD_CAT_ID":"47895","INCLINATION":"53.0510","TIME_SYSTEM":"UTC","BSTAR":"0.00072672000000","REV_AT_EPOCH":"12215","FILE":"3914964","EPOCH":"2023-05-22T20:02:20.115456"},{"RA_OF_ASC_NODE":"195.7199","OBJECT_ID":"2021-021AN","PERIOD":"95.593","SEMIMAJOR_AXIS":"6925.389","EPHEMERIS_TYPE":"0","REF_FRAME":"TEME","CLASSIFICATION_TYPE":"U","OBJECT_TYPE":"PAYLOAD","COUNTRY_CODE":"US","MEAN_MOTION_DOT":"-0.00003839","MEAN_ELEMENT_THEORY":"SGP4","SITE":"AFETR","ARG_OF_PERICENTER":"100.5088","MEAN_MOTION_DDOT":"0.0000000000000","OBJECT_NAME":"STARLINK-2356","MEAN_ANOMALY":"259.5953","RCS_SIZE":"LARGE","GP_ID":"232298268","ECCENTRICITY":"0.00004600","MEAN_MOTION":"15.06386724","PERIAPSIS":"546.936","CENTER_NAME":"EARTH","INCLINATION":"53.0528","NORAD_CAT_ID":"47896","TLE_LINE2":"2 47896  53.0528 195.7199 0000460 100.5088 259.5953 15.06386724121422","TLE_LINE1":"1 47896U 21021AN  23142.42995107 -.00003839  00000-0 -23910-3 0  9992","ELEMENT_SET_NO":"999","LAUNCH_DATE":"2021-03-14","DECAY_DATE":null,"APOAPSIS":"547.573","FILE":"3914504","REV_AT_EPOCH":"12142","EPOCH":"2023-05-22T10:19:07.772448","BSTAR":"-0.00023910000000","TIME_SYSTEM":"UTC"},{"EPHEMERIS_TYPE":"0","SEMIMAJOR_AXIS":"6925.385","PERIOD":"95.593","OBJECT_ID":"2021-021AP","RA_OF_ASC_NODE":"178.9039","MEAN_ELEMENT_THEORY":"SGP4","MEAN_MOTION_DOT":"0.00010179","COUNTRY_CODE":"US","CLASSIFICATION_TYPE":"U","OBJECT_TYPE":"PAYLOAD","REF_FRAME":"TEME","GP_ID":"232356299","MEAN_ANOMALY":"263.0939","RCS_SIZE":"LARGE","MEAN_MOTION_DDOT":"0.0000000000000","OBJECT_NAME":"STARLINK-2357","ARG_OF_PERICENTER":"97.0159","SITE":"AFETR","CENTER_NAME":"EARTH","PERIAPSIS":"546.586","MEAN_MOTION":"15.06388272","ECCENTRICITY":"0.00009580","TLE_LINE2":"2 47897  53.0517 178.9039 0000958  97.0159 263.0939 15.06388272122186","TLE_LINE1":"1 47897U 21021AP  23142.83401239  .00010179  00000-0  70150-3 0  9997","NORAD_CAT_ID":"47897","INCLINATION":"53.0517","APOAPSIS":"547.913","DECAY_DATE":null,"LAUNCH_DATE":"2021-03-14","ELEMENT_SET_NO":"999","EPOCH":"2023-05-22T20:00:58.670496","REV_AT_EPOCH":"12218","FILE":"3914964","TIME_SYSTEM":"UTC","BSTAR":"0.00070150000000"},{"PERIOD":"95.593","RA_OF_ASC_NODE":"178.9312","OBJECT_ID":"2021-021AQ","EPHEMERIS_TYPE":"0","SEMIMAJOR_AXIS":"6925.390","REF_FRAME":"TEME","MEAN_ELEMENT_THEORY":"SGP4","OBJECT_TYPE":"PAYLOAD","CLASSIFICATION_TYPE":"U","COUNTRY_CODE":"US","MEAN_MOTION_DOT":"0.00008968","ARG_OF_PERICENTER":"92.5029","SITE":"AFETR","GP_ID":"232356549","OBJECT_NAME":"STARLINK-2358","MEAN_MOTION_DDOT":"0.0000000000000","MEAN_ANOMALY":"267.6085","RCS_SIZE":"LARGE","ECCENTRICITY":"0.00010990","CENTER_NAME":"EARTH","MEAN_MOTION":"15.06386342","PERIAPSIS":"546.494","TLE_LINE2":"2 47898  53.0513 178.9312 0001099  92.5029 267.6085 15.06386342122122","TLE_LINE1":"1 47898U 21021AQ  23142.82758322  .00008968  00000-0  62041-3 0  9998","INCLINATION":"53.0513","NORAD_CAT_ID":"47898","LAUNCH_DATE":"2021-03-14","ELEMENT_SET_NO":"999","DECAY_DATE":null,"APOAPSIS":"548.017","REV_AT_EPOCH":"12212","FILE":"3914964","EPOCH":"2023-05-22T19:51:43.190208","BSTAR":"0.00062041000000","TIME_SYSTEM":"UTC"}];
